NORAD_CAT_ID,OBJECT_NAME,OBJECT_TYPE,EPOCH,MEAN_MOTION,ECCENTRICITY,INCLINATION,RA_OF_ASC_NODE,ARG_OF_PERICENTER,MEAN_ANOMALY,BSTAR,MEAN_MOTION_DOT,MEAN_MOTION_DDOT,TLE_LINE0,TLE_LINE1,TLE_LINE2,SEMIMAJOR_AXIS,PERIOD,APOGEE,PERIGEE,DECAYED
55937.0,STARLINK-5913,PAYLOAD,2023-03-22 18:00:00,15.95023936,0.0039878,69.9998,167.7472,162.6906,298.9297,-0.0023116,-0.00974856,0.00029738,0 STARLINK-5913,1 55937U 23037Z   23081.75001157 -.00974856  29738-3 -23116-2 0  9992,2 55937  69.9998 167.7472 0039878 162.6906 298.9297 15.95023936  1303,6666.385,90.281,314.834,261.665,0.0
55937.0,STARLINK-5913,PAYLOAD,2023-03-22 22:00:00,15.94723278,0.0038758,70.0,167.2611,163.2512,174.9847,-0.0024942,-0.01029443,0.00032784,0 STARLINK-5913,1 55937U 23037Z   23081.91667824 -.01029443  32784-3 -24942-2 0  9996,2 55937  70.0000 167.2611 0038758 163.2512 174.9847 15.94723278  1305,6667.223,90.298,314.928,263.247,0.0
55937.0,STARLINK-5913,PAYLOAD,2023-03-23 01:06:12,15.94705369,0.0037779,69.9978,166.8831,162.1012,198.1538,-0.00062437,-0.00258391,2.6761e-05,0 STARLINK-5913,1 55937U 23037Z   23082.04598369 -.00258391  26761-4 -62437-3 0  9994,2 55937  69.9978 166.8831 0037779 162.1012 198.1538 15.94705369  1340,6667.272,90.299,314.326,263.949,0.0
55937.0,STARLINK-5913,PAYLOAD,2023-03-23 14:00:01,15.93401308,0.0030553,70.0,165.319,164.469,38.3789,-0.0026547,-0.00991542,0.00030175,0 STARLINK-5913,1 55937U 23037Z   23082.58335648 -.00991542  30175-3 -26547-2 0  9998,2 55937  70.0000 165.3190 0030553 164.4690  38.3789 15.93401308  1439,6670.91,90.373,313.156,272.393,0.0
55937.0,STARLINK-5913,PAYLOAD,2023-03-24 17:00:11,15.9118867,0.0018991,69.9999,162.0491,173.2861,356.9787,-0.0029998,-0.0097082,0.00028379,0 STARLINK-5913,1 55937U 23037Z   23083.70846065 -.00970820  28379-3 -29998-2 0  9995,2 55937  69.9999 162.0491 0018991 173.2861 356.9787 15.91188670  1609,6677.092,90.498,311.638,286.277,0.0
55937.0,STARLINK-5913,PAYLOAD,2023-03-24 22:00:01,15.90807773,0.0017713,69.9999,161.4445,176.0587,106.4777,-0.0032425,-0.01026379,0.00031337,0 STARLINK-5913,1 55937U 23037Z   23083.91668981 -.01026379  31337-3 -32425-2 0  9996,2 55937  69.9999 161.4445 0017713 176.0587 106.4777 15.90807773  1303,6678.158,90.52,311.852,288.194,0.0
55937.0,STARLINK-5913,PAYLOAD,2023-03-25 06:00:00,15.9015528,0.0013264,70.0001,160.4788,186.3943,204.0427,-0.0033635,-0.01023431,0.00030971,0 STARLINK-5913,1 55937U 23037Z   23084.25001157 -.01023431  30971-3 -33635-2 0  9993,2 55937  70.0001 160.4788 0013264 186.3943 204.0427 15.90155280  1694,6679.985,90.557,310.71,292.99,0.0
55937.0,STARLINK-5913,PAYLOAD,2023-03-25 14:00:01,15.89480675,0.0011219,70.0001,159.5142,194.2086,303.4216,-0.0033354,-0.0097902,0.00028343,0 STARLINK-5913,1 55937U 23037Z   23084.58334491 -.00979020  28343-3 -33354-2 0  9990,2 55937  70.0001 159.5142 0011219 194.2086 303.4216 15.89480675  1744,6681.875,90.596,311.236,296.243,0.0
55937.0,STARLINK-5913,PAYLOAD,2023-03-25 22:00:00,15.88851644,0.0009138,70.0,158.5494,210.8458,33.1792,-0.0036131,-0.01025381,0.00030689,0 STARLINK-5913,1 55937U 23037Z   23084.91667824 -.01025381  30689-3 -36131-2 0  9991,2 55937  70.0000 158.5494 0009138 210.8458  33.1792 15.88851644  1795,6683.638,90.631,311.611,299.396,0.0
55937.0,STARLINK-5913,PAYLOAD,2023-03-26 06:00:00,15.88207729,0.0008565,69.9997,157.5864,231.968,117.6745,-0.0037948,-0.01042447,0.00031446,0 STARLINK-5913,1 55937U 23037Z   23085.25001157 -.01042447  31446-3 -37948-2 0  9991,2 55937  69.9997 157.5864 0008565 231.9680 117.6745 15.88207729  1853,6685.445,90.668,313.036,301.584,0.0
55937.0,STARLINK-5913,PAYLOAD,2023-03-26 22:00:01,15.86877656,0.0009195,69.9997,155.6629,264.3771,294.2361,-0.0038617,-0.00904018,0.0,0 STARLINK-5913,1 55937U 23037Z   23085.91668981 -.00904018  00000-0 -38617-2 0  9991,2 55937  69.9997 155.6629 0009195 264.3771 294.2361 15.86877656  1959,6689.18,90.744,317.196,304.894,0.0
55937.0,STARLINK-5913,PAYLOAD,2023-03-27 14:00:01,15.85589419,0.0007062,69.9998,153.743,271.2735,133.032,-0.0042394,-0.00927219,0.0,0 STARLINK-5913,1 55937U 23037Z   23086.58334491 -.00927219  00000-0 -42394-2 0  9996,2 55937  69.9998 153.7430 0007062 271.2735 133.0320 15.85589419  1307,6692.803,90.818,319.394,309.941,0.0
55937.0,STARLINK-5913,PAYLOAD,2023-03-27 22:00:00,15.84935155,0.0007442,70.0,152.7841,270.8425,235.1742,-0.0043715,-0.00926644,0.0,0 STARLINK-5913,1 55937U 23037Z   23086.91667824 -.00926644  00000-0 -43715-2 0  9991,2 55937  70.0000 152.7841 0007442 270.8425 235.1742 15.84935155  2115,6694.644,90.855,321.491,311.527,0.0
55937.0,STARLINK-5913,PAYLOAD,2023-03-28 14:00:01,15.83619776,0.0003912,70.0,150.8697,260.1986,86.8932,-0.0045553,-0.0090608,0.0,0 STARLINK-5913,1 55937U 23037Z   23087.58334491 -.00906080  00000-0 -45553-2 0  9990,2 55937  70.0000 150.8697 0003912 260.1986  86.8932 15.83619776  1304,6698.351,90.931,322.836,317.596,0.0
55937.0,STARLINK-5913,PAYLOAD,2023-03-28 22:00:00,15.82975558,0.0003591,69.9997,149.9131,277.0172,169.4342,-0.0047652,-0.00917844,0.0,0 STARLINK-5913,1 55937U 23037Z   23087.91667824 -.00917844  00000-0 -47652-2 0  9998,2 55937  69.9997 149.9131 0003591 277.0172 169.4342 15.82975558  1300,6700.168,90.968,324.439,319.627,0.0
55937.0,STARLINK-5913,PAYLOAD,2023-03-29 02:00:01,15.82642253,0.0003655,70.0002,149.4361,274.009,41.8329,-0.00478,-0.00907447,0.0,0 STARLINK-5913,1 55937U 23037Z   23088.08334491 -.00907447  00000-0 -47800-2 0  9991,2 55937  70.0002 149.4361 0003655 274.0090  41.8329 15.82642253  2309,6701.109,90.987,325.423,320.525,0.0
55937.0,STARLINK-5913,PAYLOAD,2023-03-29 14:00:01,15.81662689,0.0003585,70.0001,148.0046,266.1551,16.6773,-0.0049894,-0.00904892,0.0,0 STARLINK-5913,1 55937U 23037Z   23088.58334491 -.00904892  00000-0 -49894-2 0  9992,2 55937  70.0001 148.0046 0003585 266.1551  16.6773 15.81662689  1305,6703.875,91.043,328.144,323.337,0.0
55937.0,STARLINK-5913,PAYLOAD,2023-03-29 22:00:00,15.81011571,0.0003691,69.9998,147.0512,278.1558,101.6918,-0.0051544,-0.00906784,0.0,0 STARLINK-5913,1 55937U 23037Z   23088.91667824 -.00906784  00000-0 -51544-2 0  9995,2 55937  69.9998 147.0512 0003691 278.1558 101.6918 15.81011571  1306,6705.716,91.081,330.056,325.106,0.0
55937.0,STARLINK-5913,PAYLOAD,2023-03-30 00:00:00,15.80845592,0.0003567,69.9999,146.8133,278.1394,215.8409,-0.0051617,-0.00901591,0.0,0 STARLINK-5913,1 55937U 23037Z   23089.00001157 -.00901591  00000-0 -51617-2 0  9999,2 55937  69.9999 146.8133 0003567 278.1394 215.8409 15.80845592  2449,6706.185,91.09,330.442,325.658,0.0
55937.0,STARLINK-5913,PAYLOAD,2023-03-30 22:00:00,15.79055976,0.0003595,70.0001,144.1972,269.2703,36.9302,-0.0056514,-0.00908578,0.0,0 STARLINK-5913,1 55937U 23037Z   23089.91667824 -.00908578  00000-0 -56514-2 0  9991,2 55937  70.0001 144.1972 0003595 269.2703  36.9302 15.79055976  1309,6711.251,91.194,335.529,330.703,0.0
55937.0,STARLINK-5913,PAYLOAD,2023-03-31 22:00:00,15.77101802,0.0003709,70.0,141.3515,285.6447,299.8672,-0.0061959,-0.00911875,0.0,0 STARLINK-5913,1 55937U 23037Z   23090.91667824 -.00911875  00000-0 -61959-2 0  9996,2 55937  70.0000 141.3515 0003709 285.6447 299.8672 15.77101802  2741,6716.794,91.307,341.15,336.168,0.0
55937.0,STARLINK-5913,PAYLOAD,2023-04-01 14:00:01,15.757915,0.0003712,69.9999,139.459,281.1027,126.7079,-0.0064833,-0.00901432,0.0,0 STARLINK-5913,1 55937U 23037Z   23091.58334491 -.00901432  00000-0 -64833-2 0  9993,2 55937  69.9999 139.4590 0003712 281.1027 126.7079 15.75791500  1303,6720.517,91.383,344.876,339.887,0.0
55937.0,STARLINK-5913,PAYLOAD,2023-04-01 22:00:00,15.75139246,0.0003706,70.0,138.5143,286.4178,211.368,-0.0066757,-0.00901907,0.0,0 STARLINK-5913,1 55937U 23037Z   23091.91667824 -.00901907  00000-0 -66757-2 0  9993,2 55937  70.0000 138.5143 0003706 286.4178 211.3680 15.75139246  2900,6722.372,91.42,346.728,341.746,0.0
55937.0,STARLINK-5913,PAYLOAD,2023-04-02 14:00:01,15.73835237,0.0003616,70.0,136.6274,272.5083,42.8801,-0.0070639,-0.00901666,0.0,0 STARLINK-5913,1 55937U 23037Z   23092.58334491 -.00901666  00000-0 -70639-2 0  9994,2 55937  70.0000 136.6274 0003616 272.5083  42.8801 15.73835237  1301,6726.085,91.496,350.382,345.518,0.0
55937.0,STARLINK-5913,PAYLOAD,2023-04-02 16:00:00,15.73671804,0.0003583,69.9998,136.3918,274.0531,153.3164,-0.0071182,-0.00902132,0.0,0 STARLINK-5913,1 55937U 23037Z   23092.66667824 -.00902132  00000-0 -71182-2 0  9995,2 55937  69.9998 136.3918 0003583 274.0531 153.3164 15.73671804  3023,6726.55,91.506,350.825,346.005,0.0
55937.0,STARLINK-5913,PAYLOAD,2023-04-02 22:00:00,15.73178984,0.000382,70.0,135.6851,285.4888,117.5302,-0.0072257,-0.00897164,0.0,0 STARLINK-5913,1 55937U 23037Z   23092.91667824 -.00897164  00000-0 -72257-2 0  9995,2 55937  70.0000 135.6851 0003820 285.4888 117.5302 15.73178984  1309,6727.955,91.534,352.39,347.25,0.0
55937.0,STARLINK-5913,PAYLOAD,2023-04-03 14:00:01,15.71869229,0.0002977,69.995,133.7973,273.9598,301.966,-0.0075287,-0.00884822,0.0,0 STARLINK-5913,1 55937U 23037Z   23093.58334491 -.00884822  00000-0 -75287-2 0  9993,2 55937  69.9950 133.7973 0002977 273.9598 301.9660 15.71869229  3165,6731.692,91.611,355.561,351.553,0.0
55937.0,STARLINK-5913,PAYLOAD,2023-04-03 22:00:00,15.7118979,0.0003582,69.9951,132.8578,265.9701,35.2466,-0.0073134,-0.00839951,0.0,0 STARLINK-5913,1 55937U 23037Z   23093.91667824 -.00839951  00000-0 -73134-2 0  9991,2 55937  69.9951 132.8578 0003582 265.9701  35.2466 15.71189790  1300,6733.632,91.65,357.909,353.085,0.0
55937.0,STARLINK-5913,PAYLOAD,2023-04-04 08:00:01,15.70247132,0.000369,69.9959,131.6843,274.163,222.6472,-0.0040905,-0.00471794,0.0,0 STARLINK-5913,1 55937U 23037Z   23094.33335648 -.00471794  00000-0 -40905-2 0  9991,2 55937  69.9959 131.6843 0003690 274.1630 222.6472 15.70247132  3285,6736.327,91.705,360.678,355.706,0.0
